{
    "CCSDS_OMM_VERS": "3.0",
    "COMMENT": "GENERATED VIA SPACE-TRACK.ORG API",
    "CREATION_DATE": "2025-11-22T18:56:57",
    "ORIGINATOR": "18 SPCS",
    "OBJECT_NAME": "GALILEO 8 (264)",
    "OBJECT_ID": "2015-017B",
    "CENTER_NAME": "EARTH",
    "REF_FRAME": "TEME",
    "TIME_SYSTEM": "UTC",
    "MEAN_ELEMENT_THEORY": "SGP4",
    "EPOCH": "2025-11-21T19:37:07.053600",
    "MEAN_MOTION": "1.70475764",
    "ECCENTRICITY": "0.00062096",
    "INCLINATION": "56.8571",
    "RA_OF_ASC_NODE": "347.2688",
    "ARG_OF_PERICENTER": "257.1588",
    "MEAN_ANOMALY": "102.8194",
    "EPHEMERIS_TYPE": "0",
    "CLASSIFICATION_TYPE": "U",
    "NORAD_CAT_ID": "40545",
    "ELEMENT_SET_NO": "999",
    "REV_AT_EPOCH": "2871",
    "BSTAR": "0.00000000000000",
    "MEAN_MOTION_DOT": "-0.00000070",
    "MEAN_MOTION_DDOT": "0.0000000000000",
    "SEMIMAJOR_AXIS": "29600.116",
    "PERIOD": "844.695",
    "APOAPSIS": "23240.361",
    "PERIAPSIS": "23203.600",
    "OBJECT_TYPE": "PAYLOAD",
    "RCS_SIZE": "LARGE",
    "COUNTRY_CODE": "ESA",
    "LAUNCH_DATE": "2015-03-27",
    "SITE": "FRGUI",
    "DECAY_DATE": null,
    "FILE": "4894246",
    "GP_ID": "303251689",
    "TLE_LINE0": "0 GALILEO 8 (264)",
    "TLE_LINE1": "1 40545U 15017B   25325.81744275 -.00000070  00000-0  00000-0 0  9995",
    "TLE_LINE2": "2 40545  56.8571 347.2688 0006210 257.1588 102.8194  1.70475764 28719"
}